{"type": "FeatureCollection", "features": [ {"type": "Feature", "properties": {"norad_id": 43058, "name": "GSAT0218 (GALILEO 22)", "group": "galileo", "lat": -24.804349393730842, "lon": -152.3313979022842, "alt_km": 23217.45684646151, "timestamp": "2025-12-19T14:48:36.510499+00:00", "meta": {"OBJECT_NAME": "GSAT0218 (GALILEO 22)", "OBJECT_ID": "2017-079D", "EPOCH": "2025-12-17T21:46:41.589984", "MEAN_MOTION": 1.70474188, "ECCENTRICITY": 0.00029691, "INCLINATION": 55.1269, "RA_OF_ASC_NODE": 226.4911, "ARG_OF_PERICENTER": 304.5931, "MEAN_ANOMALY": 55.4827, "EPHEMERIS_TYPE": 0, "CLASSIFICATION_TYPE": "U", "NORAD_CAT_ID": 43058, "ELEMENT_SET_NO": 999, "REV_AT_EPOCH": 4992, "BSTAR": 0, "MEAN_MOTION_DOT": 5.9e-07, "MEAN_MOTION_DDOT": 0}, "tle": {"line1": "1 43058U 17079D   25351.90742581  .00000059  00000+0  00000+0 0  9998", "line2": "2 43058  55.1269 226.4911 0002969 304.5931  55.4827  1.70474188 49921"}}, "geometry": {"type": "Point", "coordinates": [-152.3313979022842, -24.804349393730842]}}, {"type": "Feature", "properties": {"norad_id": 43564, "name": "GSAT0221 (GALILEO 25)", "group": "galileo", "lat": 24.083426213517175, "lon": 3.3629924178254673, "alt_km": 23223.894581715227, "timestamp": "2025-12-19T14:48:36.510511+00:00", "meta": {"OBJECT_NAME": "GSAT0221 (GALILEO 25)", "OBJECT_ID": "2018-060A", "EPOCH": "2025-12-17T19:26:26.344896", "MEAN_MOTION": 1.7047594, "ECCENTRICITY": 0.00067192, "INCLINATION": 57.2267, "RA_OF_ASC_NODE": 346.6806, "ARG_OF_PERICENTER": 285.1372, "MEAN_ANOMALY": 74.8036, "EPHEMERIS_TYPE": 0, "CLASSIFICATION_TYPE": "U", "NORAD_CAT_ID": 43564, "ELEMENT_SET_NO": 999, "REV_AT_EPOCH": 4607, "BSTAR": 0, "MEAN_MOTION_DOT": -7.7e-07, "MEAN_MOTION_DDOT": 0}, "tle": {"line1": "1 43564U 18060A   25351.81002714 -.00000077  00000+0  00000+0 0  9999", "line2": "2 43564  57.2267 346.6806 0006719 285.1372  74.8036  1.70475940 46079"}}, "geometry": {"type": "Point", "coordinates": [3.3629924178254673, 24.083426213517175]}}, {"type": "Feature", "properties": {"norad_id": 43565, "name": "GSAT0222 (GALILEO 26)", "group": "galileo", "lat": -54.05106730790533, "lon": -130.69864109384082, "alt_km": 23210.145794610682, "timestamp": "2025-12-19T14:48:36.510522+00:00", "meta": {"OBJECT_NAME": "GSAT0222 (GALILEO 26)", "OBJECT_ID": "2018-060B", "EPOCH": "2025-12-18T00:42:17.845344", "MEAN_MOTION": 1.70475645, "ECCENTRICITY": 0.00060883, "INCLINATION": 57.23, "RA_OF_ASC_NODE": 346.6777, "ARG_OF_PERICENTER": 265.4214, "MEAN_ANOMALY": 94.5238, "EPHEMERIS_TYPE": 0, "CLASSIFICATION_TYPE": "U", "NORAD_CAT_ID": 43565, "ELEMENT_SET_NO": 999, "REV_AT_EPOCH": 4612, "BSTAR": 0, "MEAN_MOTION_DOT": -7.6e-07, "MEAN_MOTION_DDOT": 0}, "tle": {"line1": "1 43565U 18060B   25352.02937321 -.00000076  00000+0  00000+0 0  9994", "line2": "2 43565  57.2300 346.6777 0006088 265.4214  94.5238  1.70475645 46121"}}, "geometry": {"type": "Point", "coordinates": [-130.69864109384082, -54.05106730790533]}}, {"type": "Feature", "properties": {"norad_id": 43566, "name": "GSAT0219 (GALILEO 23)", "group": "galileo", "lat": 47.52934140641862, "lon": 121.89468100313108, "alt_km": 23233.563528410752, "timestamp": "2025-12-19T14:48:36.510533+00:00", "meta": {"OBJECT_NAME": "GSAT0219 (GALILEO 23)", "OBJECT_ID": "2018-060C", "EPOCH": "2025-12-18T20:05:25.027008", "MEAN_MOTION": 1.70475846, "ECCENTRICITY": 0.00058667, "INCLINATION": 57.2292, "RA_OF_ASC_NODE": 346.6575, "ARG_OF_PERICENTER": 289.8664, "MEAN_ANOMALY": 70.0835, "EPHEMERIS_TYPE": 0, "CLASSIFICATION_TYPE": "U", "NORAD_CAT_ID": 43566, "ELEMENT_SET_NO": 999, "REV_AT_EPOCH": 4611, "BSTAR": 0, "MEAN_MOTION_DOT": -7.4e-07, "MEAN_MOTION_DDOT": 0}, "tle": {"line1": "1 43566U 18060C   25352.83709522 -.00000074  00000+0  00000+0 0  9992", "line2": "2 43566  57.2292 346.6575 0005866 289.8664  70.0835  1.70475846 46114"}}, "geometry": {"type": "Point", "coordinates": [121.89468100313108, 47.52934140641862]}}, {"type": "Feature", "properties": {"norad_id": 43567, "name": "GSAT0220 (GALILEO 24)", "group": "galileo", "lat": -14.138960400584901, "lon": -22.71120430150488, "alt_km": 23214.268824201557, "timestamp": "2025-12-19T14:48:36.510544+00:00", "meta": {"OBJECT_NAME": "GSAT0220 (GALILEO 24)", "OBJECT_ID": "2018-060D", "EPOCH": "2025-12-17T07:09:30.654144", "MEAN_MOTION": 1.70475982, "ECCENTRICITY": 0.00060597, "INCLINATION": 57.2291, "RA_OF_ASC_NODE": 346.699, "ARG_OF_PERICENTER": 286.0855, "MEAN_ANOMALY": 73.8638, "EPHEMERIS_TYPE": 0, "CLASSIFICATION_TYPE": "U", "NORAD_CAT_ID": 43567, "ELEMENT_SET_NO": 999, "REV_AT_EPOCH": 4607, "BSTAR": 0, "MEAN_MOTION_DOT": -7.8e-07, "MEAN_MOTION_DDOT": 0}, "tle": {"line1": "1 43567U 18060D   25351.29827146 -.00000078  00000+0  00000+0 0  9999", "line2": "2 43567  57.2291 346.6990 0006059 286.0855  73.8638  1.70475982 46079"}}, "geometry": {"type": "Point", "coordinates": [-22.71120430150488, -14.138960400584901]}}, {"type": "Feature", "properties": {"norad_id": 49809, "name": "GSAT0223 (GALILEO 27)", "group": "galileo", "lat": 53.82723760431275, "lon": 48.348133523894155, "alt_km": 23228.79673341591, "timestamp": "2025-12-19T14:48:36.510555+00:00", "meta": {"OBJECT_NAME": "GSAT0223 (GALILEO 27)", "OBJECT_ID": "2021-116A", "EPOCH": "2025-12-19T04:44:53.211840", "MEAN_MOTION": 1.70476083, "ECCENTRICITY": 0.00044048, "INCLINATION": 57.218, "RA_OF_ASC_NODE": 346.5386, "ARG_OF_PERICENTER": 254.7849, "MEAN_ANOMALY": 281.7243, "EPHEMERIS_TYPE": 0, "CLASSIFICATION_TYPE": "U", "NORAD_CAT_ID": 49809, "ELEMENT_SET_NO": 999, "REV_AT_EPOCH": 2511, "BSTAR": 0, "MEAN_MOTION_DOT": -7.3e-07, "MEAN_MOTION_DDOT": 0}, "tle": {"line1": "1 49809U 21116A   25353.19783810 -.00000073  00000+0  00000+0 0  9995", "line2": "2 49809  57.2180 346.5386 0004404 254.7849 281.7243  1.70476083 25113"}}, "geometry": {"type": "Point", "coordinates": [48.348133523894155, 53.82723760431275]}}, {"type": "Feature", "properties": {"norad_id": 49810, "name": "GSAT0224 (GALILEO 28)", "group": "galileo", "lat": -5.378734688179591, "lon": 169.99748483884818, "alt_km": 23219.500405648705, "timestamp": "2025-12-19T14:48:36.510566+00:00", "meta": {"OBJECT_NAME": "GSAT0224 (GALILEO 28)", "OBJECT_ID": "2021-116B", "EPOCH": "2025-12-18T10:12:29.028672", "MEAN_MOTION": 1.70476126, "ECCENTRICITY": 0.00037733, "INCLINATION": 57.2191, "RA_OF_ASC_NODE": 346.558, "ARG_OF_PERICENTER": 258.3671, "MEAN_ANOMALY": 276.634, "EPHEMERIS_TYPE": 0, "CLASSIFICATION_TYPE": "U", "NORAD_CAT_ID": 49810, "ELEMENT_SET_NO": 999, "REV_AT_EPOCH": 2512, "BSTAR": 0, "MEAN_MOTION_DOT": -7.5e-07, "MEAN_MOTION_DDOT": 0}, "tle": {"line1": "1 49810U 21116B   25352.42533598 -.00000075  00000+0  00000+0 0  9990", "line2": "2 49810  57.2191 346.5580 0003773 258.3671 276.6340  1.70476126 25124"}}, "geometry": {"type": "Point", "coordinates": [169.99748483884818, -5.378734688179591]}}, {"type": "Feature", "properties": {"norad_id": 59598, "name": "GSAT0225 (GALILEO 29)", "group": "galileo", "lat": 0.8205776616809259, "lon": -74.47991511444839, "alt_km": 23215.890391946923, "timestamp": "2025-12-19T14:48:36.510577+00:00", "meta": {"OBJECT_NAME": "GSAT0225 (GALILEO 29)", "OBJECT_ID": "2024-079A", "EPOCH": "2025-12-16T09:22:38.225280", "MEAN_MOTION": 1.70475011, "ECCENTRICITY": 0.00021396, "INCLINATION": 55.0038, "RA_OF_ASC_NODE": 106.1932, "ARG_OF_PERICENTER": 182.0305, "MEAN_ANOMALY": 176.7742, "EPHEMERIS_TYPE": 0, "CLASSIFICATION_TYPE": "U", "NORAD_CAT_ID": 59598, "ELEMENT_SET_NO": 999, "REV_AT_EPOCH": 1019, "BSTAR": 0, "MEAN_MOTION_DOT": -1e-07, "MEAN_MOTION_DDOT": 0}, "tle": {"line1": "1 59598U 24079A   25350.39072020 -.00000010  00000+0  00000+0 0  9996", "line2": "2 59598  55.0038 106.1932 0002139 182.0305 176.7742  1.70475011 10196"}}, "geometry": {"type": "Point", "coordinates": [-74.47991511444839, 0.8205776616809259]}}, {"type": "Feature", "properties": {"norad_id": 59600, "name": "GSAT0227 (GALILEO 30)", "group": "galileo", "lat": 48.65923758017344, "lon": 158.78168719699744, "alt_km": 23210.68234536401, "timestamp": "2025-12-19T14:48:36.510589+00:00", "meta": {"OBJECT_NAME": "GSAT0227 (GALILEO 30)", "OBJECT_ID": "2024-079C", "EPOCH": "2025-12-17T17:58:49.575360", "MEAN_MOTION": 1.704749, "ECCENTRICITY": 0.00029705, "INCLINATION": 54.9996, "RA_OF_ASC_NODE": 106.1542, "ARG_OF_PERICENTER": 116.5176, "MEAN_ANOMALY": 243.4717, "EPHEMERIS_TYPE": 0, "CLASSIFICATION_TYPE": "U", "NORAD_CAT_ID": 59600, "ELEMENT_SET_NO": 999, "REV_AT_EPOCH": 1027, "BSTAR": 0, "MEAN_MOTION_DOT": -9e-08, "MEAN_MOTION_DDOT": 0}, "tle": {"line1": "1 59600U 24079C   25351.74918490 -.00000009  00000+0  00000+0 0  9998", "line2": "2 59600  54.9996 106.1542 0002970 116.5176 243.4717  1.70474900 10278"}}, "geometry": {"type": "Point", "coordinates": [158.78168719699744, 48.65923758017344]}}, {"type": "Feature", "properties": {"norad_id": 61182, "name": "GSAT0232 (GALILEO 32)", "group": "galileo", "lat": -54.193628810458826, "lon": 120.42310432717653, "alt_km": 23224.560244781354, "timestamp": "2025-12-19T14:48:36.510601+00:00", "meta": {"OBJECT_NAME": "GSAT0232 (GALILEO 32)", "OBJECT_ID": "2024-167A", "EPOCH": "2025-12-18T08:17:33.319392", "MEAN_MOTION": 1.70473695, "ECCENTRICITY": 0.0001893, "INCLINATION": 55.239, "RA_OF_ASC_NODE": 226.2771, "ARG_OF_PERICENTER": 209.3432, "MEAN_ANOMALY": 351.1487, "EPHEMERIS_TYPE": 0, "CLASSIFICATION_TYPE": "U", "NORAD_CAT_ID": 61182, "ELEMENT_SET_NO": 999, "REV_AT_EPOCH": 779, "BSTAR": 0, "MEAN_MOTION_DOT": 6.2e-07, "MEAN_MOTION_DDOT": 0}, "tle": {"line1": "1 61182U 24167A   25352.34552453  .00000062  00000+0  00000+0 0  9992", "line2": "2 61182  55.2390 226.2771 0001893 209.3432 351.1487  1.70473695  7799"}}, "geometry": {"type": "Point", "coordinates": [120.42310432717653, -54.193628810458826]}}]}